CUAVA-2                 
1 60527U 24149BM  26068.46955133  .00015400  00000+0  47570-3 0  9993
2 60527  97.3769 149.9859 0005669 291.2139  68.8497 15.33611708 86877
STARLINK-34522          
1 64492U 25133W   26068.39804266  .00021118  00000+0  72359-3 0  9990
2 64492  53.1593 118.1570 0002157  32.2245 327.8887 15.30177735 41141
